[{"OBJECT_NAME":"OBJECT K","OBJECT_ID":"2024-205K","EPOCH":"2026-03-09T22:22:01.331040","MEAN_MOTION":15.27932792,"ECCENTRICITY":0.00106729,"INCLINATION":97.417,"RA_OF_ASC_NODE":146.2172,"ARG_OF_PERICENTER":37.4736,"MEAN_ANOMALY":322.7246,"EPHEMERIS_TYPE":0,"CLASSIFICATION_TYPE":"U","NORAD_CAT_ID":61903,"ELEMENT_SET_NO":999,"REV_AT_EPOCH":7347,"BSTAR":0.00067315144,"MEAN_MOTION_DOT":0.00018331,"MEAN_MOTION_DDOT":0},{"OBJECT_NAME":"STARLINK-33800","OBJECT_ID":"2025-076H","EPOCH":"2026-03-09T02:35:25.090656","MEAN_MOTION":15.27585302,"ECCENTRICITY":0.00020506,"INCLINATION":43.0056,"RA_OF_ASC_NODE":324.7907,"ARG_OF_PERICENTER":266.4437,"MEAN_ANOMALY":93.618,"EPHEMERIS_TYPE":0,"CLASSIFICATION_TYPE":"U","NORAD_CAT_ID":63576,"ELEMENT_SET_NO":999,"REV_AT_EPOCH":5174,"BSTAR":0.001245748,"MEAN_MOTION_DOT":0.00034183,"MEAN_MOTION_DDOT":0}]
